NORAD_CAT_ID,OBJECT_NAME,OBJECT_TYPE,EPOCH,MEAN_MOTION,ECCENTRICITY,INCLINATION,RA_OF_ASC_NODE,ARG_OF_PERICENTER,MEAN_ANOMALY,BSTAR,MEAN_MOTION_DOT,MEAN_MOTION_DDOT,TLE_LINE0,TLE_LINE1,TLE_LINE2,SEMIMAJOR_AXIS,PERIOD,APOGEE,PERIGEE,DECAYED
54776.0,STARLINK-5470,PAYLOAD,2024-03-26 11:25:33,15.08824612,0.0001028,53.2185,5.4626,73.0264,287.084,0.00044513,6.801e-05,0.0,0 STARLINK-5470,1 54776U 22175U   24086.47607942  .00006801  00000-0  44513-3 0  9990,2 54776  53.2185   5.4626 0001028  73.0264 287.0840 15.08824612 70093,6917.927,95.439,540.504,539.081,0.0
54776.0,STARLINK-5470,PAYLOAD,2024-03-26 22:33:14,15.08866109,0.0001717,53.2181,3.386,144.3645,215.7462,0.0010291,0.0001614,0.0,0 STARLINK-5470,1 54776U 22175U   24086.93974608  .00016140  00000-0  10291-2 0  9999,2 54776  53.2181   3.3860 0001717 144.3645 215.7462 15.08866109 72329,6917.801,95.436,540.853,538.478,0.0
54776.0,STARLINK-5470,PAYLOAD,2024-03-27 01:44:00,15.08872806,9.97e-05,53.2173,2.7914,122.0146,238.0943,0.001036,0.00016253,0.0,0 STARLINK-5470,1 54776U 22175U   24087.07222514  .00016253  00000-0  10360-2 0  9999,2 54776  53.2173   2.7914 0000997 122.0146 238.0943 15.08872806 70186,6917.78,95.435,540.335,538.955,0.0
54776.0,STARLINK-5470,PAYLOAD,2024-03-27 11:16:17,15.08889985,8.46e-05,53.2172,1.0046,71.3264,288.782,0.0011478,0.00018051,0.0,0 STARLINK-5470,1 54776U 22175U   24087.46965187  .00018051  00000-0  11478-2 0  9991,2 54776  53.2172   1.0046 0000846  71.3264 288.7820 15.08889985 72402,6917.728,95.434,540.178,539.007,0.0
54776.0,STARLINK-5470,PAYLOAD,2024-03-27 17:37:51,15.08854245,0.0002058,53.2167,359.819,84.9099,275.2128,0.0001836,2.636e-05,0.0,0 STARLINK-5470,1 54776U 22175U   24087.73462133  .00002636  00000-0  18360-3 0  9994,2 54776  53.2167 359.8190 0002058  84.9099 275.2128 15.08854245 70280,6917.837,95.437,541.126,538.278,0.0
54776.0,STARLINK-5470,PAYLOAD,2024-03-27 22:24:00,15.08843218,0.0001353,53.2171,358.9268,86.9322,273.1825,-0.00019341,-3.365e-05,0.0,0 STARLINK-5470,1 54776U 22175U   24087.93334186 -.00003365  00000-0 -19341-3 0  9994,2 54776  53.2171 358.9268 0001353  86.9322 273.1825 15.08843218 72471,6917.871,95.437,540.672,538.8,0.0
54776.0,STARLINK-5470,PAYLOAD,2024-03-28 03:10:09,15.08851025,0.0001441,53.2174,358.0329,82.2465,277.8691,-0.00034229,-5.733e-05,0.0,0 STARLINK-5470,1 54776U 22175U   24088.13205408 -.00005733  00000-0 -34229-3 0  9994,2 54776  53.2174 358.0329 0001441  82.2465 277.8691 15.08851025 72509,6917.847,95.437,540.709,538.715,0.0
54776.0,STARLINK-5470,PAYLOAD,2024-03-28 22:14:47,15.08850574,0.0001512,53.2169,354.4632,99.3063,260.81,0.0004897,7.516e-05,0.0,0 STARLINK-5470,1 54776U 22175U   24088.92693329  .00007516  00000-0  48970-3 0  9991,2 54776  53.2169 354.4632 0001512  99.3063 260.8100 15.08850574 72620,6917.848,95.437,540.759,538.667,0.0
54776.0,STARLINK-5470,PAYLOAD,2024-03-29 10:57:51,15.08859143,0.0001478,53.2178,352.0849,86.0453,274.0708,0.00032444,4.882e-05,0.0,0 STARLINK-5470,1 54776U 22175U   24089.45684755  .00004882  00000-0  32444-3 0  9995,2 54776  53.2178 352.0849 0001478  86.0453 274.0708 15.08859143 70542,6917.822,95.436,540.709,538.664,0.0
54776.0,STARLINK-5470,PAYLOAD,2024-03-29 17:19:25,15.0884768,0.0002042,53.2177,350.8977,89.3201,270.8025,0.00026156,3.878e-05,0.0,0 STARLINK-5470,1 54776U 22175U   24089.72181868  .00003878  00000-0  26156-3 0  9999,2 54776  53.2177 350.8977 0002042  89.3201 270.8025 15.08847680 70587,6917.857,95.437,541.135,538.309,0.0
54776.0,STARLINK-5470,PAYLOAD,2024-03-29 22:05:34,15.08840306,0.0001684,53.2174,350.0058,87.0719,273.0466,-2.7187e-06,-3.31e-06,0.0,0 STARLINK-5470,1 54776U 22175U   24089.92053356 -.00000331  00000-0 -27187-5 0  9991,2 54776  53.2174 350.0058 0001684  87.0719 273.0466 15.08840306 72771,6917.879,95.438,540.909,538.579,0.0
54776.0,STARLINK-5470,PAYLOAD,2024-03-30 10:48:39,15.08844556,0.0001661,53.2176,347.6239,98.2306,261.8875,0.0002913,4.352e-05,0.0,0 STARLINK-5470,1 54776U 22175U   24090.45045244  .00004352  00000-0  29130-3 0  9991,2 54776  53.2176 347.6239 0001661  98.2306 261.8875 15.08844556 72856,6917.866,95.437,540.881,538.582,0.0
54776.0,STARLINK-5470,PAYLOAD,2024-03-30 20:20:58,15.08826446,0.0001121,53.2176,345.8437,72.2623,287.8491,-0.00013695,-2.466e-05,0.0,0 STARLINK-5470,1 54776U 22175U   24090.84789804 -.00002466  00000-0 -13695-3 0  9996,2 54776  53.2176 345.8437 0001121  72.2623 287.8491 15.08826446 70758,6917.922,95.438,540.562,539.011,0.0
54776.0,STARLINK-5470,PAYLOAD,2024-03-30 23:31:44,15.0883722,0.0001393,53.2174,345.2473,83.4631,276.652,0.00025485,3.77e-05,0.0,0 STARLINK-5470,1 54776U 22175U   24090.98037811  .00003770  00000-0  25485-3 0  9992,2 54776  53.2174 345.2473 0001393  83.4631 276.6520 15.08837220 72937,6917.889,95.438,540.718,538.79,0.0
54776.0,STARLINK-5470,PAYLOAD,2024-03-31 02:42:30,15.08843703,0.0001419,53.2176,344.6514,84.7974,275.318,0.00054315,8.368e-05,0.0,0 STARLINK-5470,1 54776U 22175U   24091.11285803  .00008368  00000-0  54315-3 0  9996,2 54776  53.2176 344.6514 0001419  84.7974 275.3180 15.08843703 70794,6917.869,95.437,540.716,538.752,0.0
54776.0,STARLINK-5470,PAYLOAD,2024-03-31 20:11:45,15.08838306,0.0001419,53.2179,341.3784,93.16,266.9554,0.00038872,5.904e-05,0.0,0 STARLINK-5470,1 54776U 22175U   24091.84150175  .00005904  00000-0  38872-3 0  9992,2 54776  53.2179 341.3784 0001419  93.1600 266.9554 15.08838306 70907,6917.886,95.438,540.732,538.769,0.0
54776.0,STARLINK-5470,PAYLOAD,2024-03-31 23:22:32,15.08837552,0.0001339,53.2162,340.7828,88.1286,271.986,0.00029647,4.433e-05,0.0,0 STARLINK-5470,1 54776U 22175U   24091.97398245  .00004433  00000-0  29647-3 0  9994,2 54776  53.2162 340.7828 0001339  88.1286 271.9860 15.08837552 73086,6917.888,95.438,540.679,538.827,0.0
54776.0,STARLINK-5470,PAYLOAD,2024-04-01 08:54:50,15.08845474,0.0001314,53.2168,338.9988,89.0845,271.0297,0.0004615,7.066e-05,0.0,0 STARLINK-5470,1 54776U 22175U   24092.37142092  .00007066  00000-0  46150-3 0  9999,2 54776  53.2168 338.9988 0001314  89.0845 271.0297 15.08845474 73146,6917.864,95.437,540.638,538.82,0.0
54776.0,STARLINK-5470,PAYLOAD,2024-04-02 02:24:05,15.08847701,0.0001364,53.2178,335.7334,96.5167,263.598,0.00033041,4.976e-05,0.0,0 STARLINK-5470,1 54776U 22175U   24093.10005998  .00004976  00000-0  33041-3 0  9996,2 54776  53.2178 335.7334 0001364  96.5167 263.5980 15.08847701 71094,6917.857,95.437,540.665,538.778,0.0
54776.0,STARLINK-5470,PAYLOAD,2024-04-02 08:45:37,15.08853428,0.0001402,53.2182,334.5441,97.3911,262.7241,0.00042511,6.487e-05,0.0,0 STARLINK-5470,1 54776U 22175U   24093.36501661  .00006487  00000-0  42511-3 0  9993,2 54776  53.2182 334.5441 0001402  97.3911 262.7241 15.08853428 73292,6917.839,95.437,540.674,538.734,0.0
54776.0,STARLINK-5470,PAYLOAD,2024-04-02 21:28:43,15.08834525,0.0001482,53.2176,332.1666,105.9103,254.2053,-2.8477e-05,-7.41e-06,0.0,0 STARLINK-5470,1 54776U 22175U   24093.89494454 -.00000741  00000-0 -28477-4 0  9997,2 54776  53.2176 332.1666 0001482 105.9103 254.2053 15.08834525 73378,6917.897,95.438,540.787,538.737,0.0
54776.0,STARLINK-5470,PAYLOAD,2024-04-02 23:04:06,15.08835205,0.0001455,53.2176,331.8693,105.207,254.9083,-1.5254e-05,-5.31e-06,0.0,0 STARLINK-5470,1 54776U 22175U   24093.96118452 -.00000531  00000-0 -15254-4 0  9992,2 54776  53.2176 331.8693 0001455 105.2070 254.9083 15.08835205 71228,6917.895,95.438,540.767,538.753,0.0
54776.0,STARLINK-5470,PAYLOAD,2024-04-03 14:57:57,15.08844814,0.0001354,53.2175,328.894,98.8162,261.2983,0.00020257,2.938e-05,0.0,0 STARLINK-5470,1 54776U 22175U   24094.62358181  .00002938  00000-0  20257-3 0  9990,2 54776  53.2175 328.8940 0001354  98.8162 261.2983 15.08844814 73481,6917.866,95.437,540.667,538.794,0.0
54776.0,STARLINK-5470,PAYLOAD,2024-04-03 19:44:07,15.08840817,0.0001365,53.2177,328.0024,100.5512,259.5634,0.00014259,1.982e-05,0.0,0 STARLINK-5470,1 54776U 22175U   24094.82230353  .00001982  00000-0  14259-3 0  9995,2 54776  53.2177 328.0024 0001365 100.5512 259.5634 15.08840817 73516,6917.878,95.438,540.687,538.799,0.0
54776.0,STARLINK-5470,PAYLOAD,2024-04-04 08:27:11,15.0885145,0.0001415,53.2171,325.6215,84.1659,275.9495,0.00048761,7.483e-05,0.0,0 STARLINK-5470,1 54776U 22175U   24095.35222125  .00007483  00000-0  48761-3 0  9999,2 54776  53.2171 325.6215 0001415  84.1659 275.9495 15.08851450 73590,6917.845,95.437,540.689,538.732,0.0
54776.0,STARLINK-5470,PAYLOAD,2024-04-04 21:10:17,15.08841727,0.0001414,53.2154,323.2448,86.7528,273.3626,0.00010528,1.388e-05,0.0,0 STARLINK-5470,1 54776U 22175U   24095.88214291  .00001388  00000-0  10528-3 0  9990,2 54776  53.2154 323.2448 0001414  86.7528 273.3626 15.08841727 71519,6917.875,95.437,540.718,538.762,0.0
54776.0,STARLINK-5470,PAYLOAD,2024-04-05 14:39:31,15.08850036,0.0001342,53.2162,319.9717,88.0257,272.0888,0.00023557,3.464e-05,0.0,0 STARLINK-5470,1 54776U 22175U   24096.61077792  .00003464  00000-0  23557-3 0  9998,2 54776  53.2162 319.9717 0001342  88.0257 272.0888 15.08850036 73783,6917.85,95.437,540.643,538.786,0.0
54776.0,STARLINK-5470,PAYLOAD,2024-04-05 21:01:04,15.08840292,0.0001402,53.2163,318.7809,93.3064,266.8088,5.2445e-05,5.47e-06,0.0,0 STARLINK-5470,1 54776U 22175U   24096.87574259  .00000547  00000-0  52445-4 0  9994,2 54776  53.2163 318.7809 0001402  93.3064 266.8088 15.08840292 73826,6917.879,95.438,540.714,538.775,0.0
54776.0,STARLINK-5470,PAYLOAD,2024-04-06 00:11:50,15.08845537,0.0001366,53.216,318.1852,91.1021,269.0127,9.9053e-05,1.289e-05,0.0,0 STARLINK-5470,1 54776U 22175U   24097.00822029  .00001289  00000-0  99053-4 0  9991,2 54776  53.2160 318.1852 0001366  91.1021 269.0127 15.08845537 71681,6917.863,95.437,540.673,538.783,0.0
54776.0,STARLINK-5470,PAYLOAD,2024-04-06 14:30:18,15.08847257,0.0001451,53.2159,315.5106,90.872,269.2439,0.00022008,3.217e-05,0.0,0 STARLINK-5470,1 54776U 22175U   24097.60437871  .00003217  00000-0  22008-3 0  9992,2 54776  53.2159 315.5106 0001451  90.8720 269.2439 15.08847257 73938,6917.858,95.437,540.727,538.719,0.0
